#aV2019 10 16  0  0  0.00000000     288 DD+AD WGS84 FIT  NGA
## 2075 259200.00000000   300.00000000 58772 0.0000000000000
+   31     1  2  3  5  6  7  8  9 10 11 12 13 14 15 16 17 18
+         19 20 21 22 23 24 25 26 27 28 29 30 31 32  0  0  0
+          0  0  0  0  0  0  0  0  0  0  0  0  0  0  0  0  0
+          0  0  0  0  0  0  0  0  0  0  0  0  0  0  0  0  0
+          0  0  0  0  0  0  0  0  0  0  0  0  0  0  0  0  0
++         2  2  2  2  2  2  2  2  2  2  2  2  2  2  2  2  2
++         2  2  2  2  2  2  2  2  2  2  2  2  2  2  0  0  0
++         0  0  0  0  0  0  0  0  0  0  0  0  0  0  0  0  0
++         0  0  0  0  0  0  0  0  0  0  0  0  0  0  0  0  0
++         0  0  0  0  0  0  0  0  0  0  0  0  0  0  0  0  0
%c cc cc ccc ccc cccc cccc cccc cccc ccccc ccccc ccccc ccccc
%c cc cc ccc ccc cccc cccc cccc cccc ccccc ccccc ccccc ccccc
%f  0.0000000  0.000000000  0.00000000000  0.000000000000000
%f  0.0000000  0.000000000  0.00000000000  0.000000000000000
%i    0    0    0    0      0      0      0      0         0
%i    0    0    0    0      0      0      0      0         0
/*      NGA, ST. LOUIS,MO.                                  
/*   EPHEMERIS COMPUTED FROM 2 DAYS OF DATA                 
/*   EPOCHA v5 SMOOTHER                                     
/*   G1762 IERS2010 SATAF SATAPC                            
*  2019 10 16  3  5  0.00000000
P  1  -9126.230344 -13698.664514 -21115.466009   -164.086318                    
V  1  26139.401022  -2159.447148  -9684.690107     -0.131943                    
P  2 -13860.439880  14599.696189  17878.984276   -326.777236                    
V  2 -21577.375252   1270.388846 -18536.501820     -0.078994                    
P  3 -13132.612726 -22985.188708  -2754.833211    -22.979743                    
V  3   4093.034966   1367.584468 -31501.707091     -0.048922                    
P  5  -2441.770872  18968.041963  18210.258167     -2.372315                    
V  5 -15149.340624 -18069.513366  16857.875749     -0.003701                    
P  6 -24903.873958   6364.288639   6786.434781    -91.874317                    
V  6  -8672.461855  -1554.723754 -30530.455515     -0.127994                    
P  7 -23182.019938  -7018.564402  11718.170452   -128.022779                    
V  7  14149.121331  -2907.256170  26427.475447     -0.080585                    
P  8   3618.011779 -24106.903962 -10246.130871    -10.050523                    
V  8   7761.092238 -10843.681110  28365.899911     -0.013090                    
P  9 -12380.652149  -9484.505729  21447.900463    -57.865782                    
V  9  12022.980833 -24603.434065  -3937.782612     -0.101254                    
P 10  18181.775897   3169.715272 -19117.729208    -95.805313                    
V 10  12621.855760  20831.959266  15192.767289     -0.153862                    
P 11  -5536.679917 -15770.777491 -21183.630647   -476.884374                    
V 11  22615.103296 -12662.392641   3294.997776      0.112390                    
P 12   8459.532767  24285.333769  -7182.815646    193.609166                    
V 12  -6029.810368  -6653.684732 -30350.884034     -0.038881                    
P 13 -12553.364853  23163.037048  -3176.119270    -38.604517                    
V 13  -4311.209740   1831.370993  31628.318777      0.021751                    
P 14  17761.790408 -16995.666710  -9490.782634    -55.890925                    
V 14  -4033.060281  12226.238012 -28649.207837      0.020532                    
P 15   -189.077537  24096.709206 -11008.278787   -279.592494                    
V 15  -8098.104657  11669.815430  26766.774226      0.027148                    
P 16   5566.596654 -16830.258858  19439.612388    -83.710466                    
V 16  13289.136426  21436.001358  15032.109550     -0.036249                    
P 17 -17904.986935   8719.874490 -17111.926057    144.969093                    
V 17   9731.328217 -20374.437491 -20156.994557      0.069882                    
P 18    410.162363 -15662.730197 -21947.765685     93.345434                    
V 18  26536.363005  -2947.915253   2759.036747      0.027225                    
P 19 -18761.306518  14188.756345 -12654.329635   -253.145210                    
V 19   6809.400283 -14075.192017 -26476.325152      0.052219                    
P 20  21261.733465  11022.358250 -11783.558488    527.213177                    
V 20   7508.975791  13095.606903  25842.324265      0.001111                    
P 21  24855.393775   3367.876154   9208.952477   -101.710269                    
V 21 -10218.066236   4219.312312  28687.929627      0.061710                    
P 22  -8909.878737 -23005.918458  -9746.311031   -764.256804                    
V 22  10554.681355   7861.953843 -27491.769507     -0.031714                    
P 23  -5415.571758 -19064.466398  17841.841144   -161.192616                    
V 23  11167.377464 -19266.996543 -17924.968913      0.021496                    
P 24   7030.488202  14755.517303 -21148.642957     -3.521012                    
V 24 -26241.076652   3767.243935  -5794.703960     -0.005718                    
P 25  17648.035118  19069.724909   5914.147731    -15.458064                    
V 25   2369.478150   7709.382597 -30568.332727     -0.009194                    
P 26  12624.793712  -8916.301869  21584.131810     62.476901                    
V 26  16049.501157  22314.730299     20.432864      0.085910                    
P 27  12236.198418 -23350.116506   1151.798817    -88.917042                    
V 27   1548.853333   2545.400769  32310.093855     -0.121998                    
P 28 -17012.224513  -4066.735076 -19346.835609    758.885476                    
V 28 -11367.227564 -23281.298059  14547.883616     -0.012973                    
P 29   9777.513648  11775.303001  21671.610577     70.156440                    
V 29 -14080.071859  23654.638653  -6514.318596     -0.101484                    
P 30 -26656.388043    173.351848    842.627872    -62.539553                    
V 30    929.831312  -3329.790863  31136.510103     -0.082208                    
P 31  24348.258659  -7066.731842   8644.881239      3.383675                    
V 31  10950.668316   1833.810784 -28852.267849     -0.025849                    
P 32  17878.193667  -9194.866606 -17230.455782     92.817618                    
V 32  -7859.221507  20696.483196 -19255.919330      0.128898                    
EOF
